NORAD_CAT_ID,OBJECT_NAME,OBJECT_TYPE,EPOCH,MEAN_MOTION,ECCENTRICITY,INCLINATION,RA_OF_ASC_NODE,ARG_OF_PERICENTER,MEAN_ANOMALY,BSTAR,MEAN_MOTION_DOT,MEAN_MOTION_DDOT,TLE_LINE0,TLE_LINE1,TLE_LINE2,SEMIMAJOR_AXIS,PERIOD,APOGEE,PERIGEE,DECAYED
53252.0,STARLINK-4132,PAYLOAD,2023-07-27 14:19:18,15.08846178,0.0001672,53.2169,166.1413,75.8633,284.2545,7.9237e-06,-1.62e-06,0.0,0 STARLINK-4132,1 53252U 22086L   23208.59674460 -.00000162  00000-0  79237-5 0  9994,2 53252  53.2169 166.1413 0001672  75.8633 284.2545 15.08846178 56745,6917.862,95.437,540.883,538.57,0.0
53252.0,STARLINK-4132,PAYLOAD,2023-07-27 22:16:15,15.08833685,0.0001745,53.217,164.6504,83.0597,277.0593,2.719e-05,1.45e-06,0.0,0 STARLINK-4132,1 53252U 22086L   23208.92795330  .00000145  00000-0  27190-4 0  9991,2 53252  53.2170 164.6504 0001745  83.0597 277.0593 15.08833685 56799,6917.9,95.438,540.972,538.558,0.0
53252.0,STARLINK-4132,PAYLOAD,2023-07-28 01:27:01,15.08829691,0.000157,53.2166,164.0563,81.7369,278.3801,-1.5986e-05,-5.42e-06,0.0,0 STARLINK-4132,1 53252U 22086L   23209.06043737 -.00000542  00000-0 -15986-4 0  9997,2 53252  53.2166 164.0563 0001570  81.7369 278.3801 15.08829691 56610,6917.912,95.438,540.863,538.691,0.0
53252.0,STARLINK-4132,PAYLOAD,2023-07-28 04:37:47,15.08830513,0.0001055,53.2168,163.4627,85.4524,274.6588,-5.2618e-06,-3.71e-06,0.0,0 STARLINK-4132,1 53252U 22086L   23209.19291614 -.00000371  00000-0 -52618-5 0  9994,2 53252  53.2168 163.4627 0001055  85.4524 274.6588 15.08830513 56838,6917.909,95.438,540.504,539.045,0.0
53252.0,STARLINK-4132,PAYLOAD,2023-07-28 14:10:06,15.08837817,0.0001067,53.2171,161.6792,86.2241,273.8873,3.8848e-05,3.31e-06,0.0,0 STARLINK-4132,1 53252U 22086L   23209.59035169  .00000331  00000-0  38848-4 0  9991,2 53252  53.2171 161.6792 0001067  86.2241 273.8873 15.08837817 56699,6917.887,95.438,540.49,539.014,0.0
53252.0,STARLINK-4132,PAYLOAD,2023-07-29 02:53:10,15.0884937,9.8e-05,53.2174,159.3,89.6668,270.4437,7.3732e-05,8.86e-06,0.0,0 STARLINK-4132,1 53252U 22086L   23210.12026326  .00000886  00000-0  73732-4 0  9993,2 53252  53.2174 159.3000 0000980  89.6668 270.4437 15.08849370 56776,6917.852,95.437,540.395,539.039,0.0
53252.0,STARLINK-4132,PAYLOAD,2023-07-29 04:28:33,15.08875383,0.000103,53.2175,159.0026,79.9007,280.2101,-0.0002221,-3.824e-05,0.0,0 STARLINK-4132,1 53252U 22086L   23210.18649817 -.00003824  00000-0 -22210-3 0  9996,2 53252  53.2175 159.0026 0001030  79.9007 280.2101 15.08875383 56789,6917.772,95.435,540.35,538.925,0.0
53252.0,STARLINK-4132,PAYLOAD,2023-07-29 14:00:52,15.08867152,0.0001327,53.2176,157.2185,75.0518,285.0621,-0.00025205,-4.3e-05,0.0,0 STARLINK-4132,1 53252U 22086L   23210.58393825 -.00004300  00000-0 -25205-3 0  9992,2 53252  53.2176 157.2185 0001327  75.0518 285.0621 15.08867152 56841,6917.797,95.436,540.58,538.744,0.0
53252.0,STARLINK-4132,PAYLOAD,2023-07-30 02:43:58,15.08836921,0.0001191,53.2167,154.8388,91.9933,268.1196,0.00014871,2.079e-05,0.0,0 STARLINK-4132,1 53252U 22086L   23211.11387231  .00002079  00000-0  14871-3 0  9992,2 53252  53.2167 154.8388 0001191  91.9933 268.1196 15.08836921 56924,6917.89,95.438,540.579,538.931,0.0
53252.0,STARLINK-4132,PAYLOAD,2023-07-31 05:45:31,15.08843803,0.0001585,53.2176,149.7819,99.5744,260.5427,5.5361e-05,5.93e-06,0.0,0 STARLINK-4132,1 53252U 22086L   23212.23995050  .00000593  00000-0  55361-4 0  9999,2 53252  53.2176 149.7819 0001585  99.5744 260.5427 15.08843803 57096,6917.869,95.437,540.83,538.637,0.0
53252.0,STARLINK-4132,PAYLOAD,2023-08-01 19:54:47,15.08835695,0.0001452,53.2175,142.6439,91.2132,268.9026,5.6991e-05,6.19e-06,0.0,0 STARLINK-4132,1 53252U 22086L   23213.82971665  .00000619  00000-0  56991-4 0  9990,2 53252  53.2175 142.6439 0001452  91.2132 268.9026 15.08835695 57332,6917.894,95.438,540.763,538.754,0.0
53252.0,STARLINK-4132,PAYLOAD,2023-08-02 11:48:38,15.08842957,0.0001296,53.2176,139.6717,88.6174,271.4967,8.1586e-05,1.011e-05,0.0,0 STARLINK-4132,1 53252U 22086L   23214.49211208  .00001011  00000-0  81586-4 0  9999,2 53252  53.2176 139.6717 0001296  88.6174 271.4967 15.08842957 57433,6917.871,95.437,540.633,538.84,0.0
53252.0,STARLINK-4132,PAYLOAD,2023-08-04 01:57:54,15.08834,0.0001056,53.2165,132.5305,91.5847,268.5266,-1.2352e-05,-4.84e-06,0.0,0 STARLINK-4132,1 53252U 22086L   23216.08187885 -.00000484  00000-0 -12352-4 0  9999,2 53252  53.2165 132.5305 0001056  91.5847 268.5266 15.08834000 57675,6917.899,95.438,540.494,539.033,0.0
53252.0,STARLINK-4132,PAYLOAD,2023-08-06 03:14:50,15.08869707,0.000107,53.2164,123.3177,89.4327,270.6788,0.00059408,9.187e-05,0.0,0 STARLINK-4132,1 53252U 22086L   23218.13530696  .00009187  00000-0  59408-3 0  9998,2 53252  53.2164 123.3177 0001070  89.4327 270.6788 15.08869707 57983,6917.79,95.436,540.395,538.914,0.0
53252.0,STARLINK-4132,PAYLOAD,2023-08-06 17:33:19,15.08845891,0.0002124,53.2153,120.645,86.215,273.9085,-4.4767e-05,-1.001e-05,0.0,0 STARLINK-4132,1 53252U 22086L   23218.73147885 -.00001001  00000-0 -44767-4 0  9990,2 53252  53.2153 120.6450 0002124  86.2150 273.9085 15.08845891 58070,6917.862,95.437,541.197,538.258,0.0
53252.0,STARLINK-4132,PAYLOAD,2023-08-06 23:54:52,15.08828516,0.0001115,53.2156,119.454,102.2753,257.8364,-0.0002984,-5.032e-05,0.0,0 STARLINK-4132,1 53252U 22086L   23218.99644016 -.00005032  00000-0 -29840-3 0  9998,2 53252  53.2156 119.4540 0001115 102.2753 257.8364 15.08828516 58117,6917.915,95.438,540.552,539.009,0.0
53252.0,STARLINK-4132,PAYLOAD,2023-08-07 11:02:34,15.08835995,0.0001118,53.2156,117.3724,106.7524,253.3591,0.00095893,0.00015005,0.0,0 STARLINK-4132,1 53252U 22086L   23219.46012575  .00015005  00000-0  95893-3 0  9990,2 53252  53.2156 117.3724 0001118 106.7524 253.3591 15.08835995 58185,6917.893,95.438,540.531,538.984,0.0
53252.0,STARLINK-4132,PAYLOAD,2023-08-08 02:56:25,15.08870932,0.000104,53.2159,114.3978,108.9867,251.1238,0.0015744,0.00024879,0.0,0 STARLINK-4132,1 53252U 22086L   23220.12251945  .00024879  00000-0  15744-2 0  9996,2 53252  53.2159 114.3978 0001040 108.9867 251.1238 15.08870932 58289,6917.786,95.436,540.37,538.931,0.0
53252.0,STARLINK-4132,PAYLOAD,2023-08-08 17:14:53,15.08859866,9.41e-05,53.2161,111.7226,86.7175,273.3924,0.00078959,0.00012308,0.0,0 STARLINK-4132,1 53252U 22086L   23220.71867969  .00012308  00000-0  78959-3 0  9992,2 53252  53.2161 111.7226 0000941  86.7175 273.3924 15.08859866 58374,6917.82,95.436,540.336,539.034,0.0
53252.0,STARLINK-4132,PAYLOAD,2023-08-09 02:47:12,15.08852494,7.29e-05,53.2162,109.9386,122.1085,237.9978,0.0014783,0.00023325,0.0,0 STARLINK-4132,1 53252U 22086L   23221.11611891  .00023325  00000-0  14783-2 0  9993,2 53252  53.2162 109.9386 0000729 122.1085 237.9978 15.08852494 58432,6917.842,95.437,540.212,539.203,0.0
53252.0,STARLINK-4132,PAYLOAD,2023-08-09 09:08:45,15.08833773,7.99e-05,53.2165,108.7477,106.2059,253.9021,0.00044197,6.752e-05,0.0,0 STARLINK-4132,1 53252U 22086L   23221.38108346  .00006752  00000-0  44197-3 0  9996,2 53252  53.2165 108.7477 0000799 106.2059 253.9021 15.08833773 58474,6917.899,95.438,540.317,539.212,0.0
53252.0,STARLINK-4132,PAYLOAD,2023-08-10 15:21:05,15.08844036,0.0001094,53.2156,103.1038,114.9372,245.1734,0.00021533,3.141e-05,0.0,0 STARLINK-4132,1 53252U 22086L   23222.63964217  .00003141  00000-0  21533-3 0  9990,2 53252  53.2156 103.1038 0001094 114.9372 245.1734 15.08844036 58668,6917.868,95.437,540.49,538.976,0.0
53252.0,STARLINK-4132,PAYLOAD,2023-08-10 23:18:01,15.08837076,0.0001189,53.2168,101.6148,104.7023,255.4101,6.5912e-05,7.61e-06,0.0,0 STARLINK-4132,1 53252U 22086L   23222.97084567  .00000761  00000-0  65912-4 0  9993,2 53252  53.2168 101.6148 0001189 104.7023 255.4101 15.08837076 58715,6917.889,95.438,540.577,538.932,0.0
53252.0,STARLINK-4132,PAYLOAD,2023-08-13 00:34:58,15.08843498,0.0001199,53.217,92.3939,90.4615,269.6514,9.2203e-05,1.18e-05,0.0,0 STARLINK-4132,1 53252U 22086L   23225.02428419  .00001180  00000-0  92203-4 0  9999,2 53252  53.2170  92.3939 0001199  90.4615 269.6514 15.08843498 59026,6917.87,95.437,540.564,538.905,0.0
53252.0,STARLINK-4132,PAYLOAD,2023-08-14 00:25:45,15.08843192,0.0001194,53.2172,87.931,96.9981,263.1147,8.0211e-05,9.89e-06,0.0,0 STARLINK-4132,1 53252U 22086L   23226.01788511  .00000989  00000-0  80211-4 0  9993,2 53252  53.2172  87.9310 0001194  96.9981 263.1147 15.08843192 59171,6917.871,95.437,540.562,538.91,0.0
53252.0,STARLINK-4132,PAYLOAD,2023-08-16 00:07:19,15.08840946,0.0001275,53.2154,79.0127,87.783,272.3308,5.4301e-05,5.76e-06,0.0,0 STARLINK-4132,1 53252U 22086L   23228.00508731  .00000576  00000-0  54301-4 0  9991,2 53252  53.2154  79.0127 0001275  87.7830 272.3308 15.08840946 59478,6917.877,95.437,540.625,538.86,0.0
53252.0,STARLINK-4132,PAYLOAD,2023-08-16 23:58:06,15.08836297,0.0001336,53.2162,74.5514,88.0914,272.0231,4.9308e-05,4.97e-06,0.0,0 STARLINK-4132,1 53252U 22086L   23228.99869111  .00000497  00000-0  49308-4 0  9994,2 53252  53.2162  74.5514 0001336  88.0914 272.0231 15.08836297 59625,6917.892,95.438,540.681,538.832,0.0
53252.0,STARLINK-4132,PAYLOAD,2023-08-17 20:38:07,15.08843909,0.0001355,53.2163,70.6856,87.6138,272.501,0.00014334,1.994e-05,0.0,0 STARLINK-4132,1 53252U 22086L   23229.85980522  .00001994  00000-0  14334-3 0  9993,2 53252  53.2163  70.6856 0001355  87.6138 272.5010 15.08843909 59758,6917.868,95.437,540.671,538.796,0.0
53252.0,STARLINK-4132,PAYLOAD,2023-08-18 06:10:26,15.08835205,0.0001391,53.2182,68.901,82.2485,277.8665,5.7627e-05,6.29e-06,0.0,0 STARLINK-4132,1 53252U 22086L   23230.25725324  .00000629  00000-0  57627-4 0  9993,2 53252  53.2182  68.9010 0001391  82.2485 277.8665 15.08835205 59818,6917.895,95.438,540.722,538.798,0.0
53252.0,STARLINK-4132,PAYLOAD,2023-08-19 12:22:46,15.08832742,0.0001272,53.2166,63.252,86.009,274.1047,3.6478e-05,2.93e-06,0.0,0 STARLINK-4132,1 53252U 22086L   23231.51582014  .00000293  00000-0  36478-4 0  9998,2 53252  53.2166  63.2520 0001272  86.0090 274.1047 15.08832742 60006,6917.903,95.438,540.648,538.888,0.0
